{"type": "FeatureCollection", "features": [ {"type": "Feature", "properties": {"norad_id": 34014, "name": "COSMOS 2251 DEB", "group": "cosmos-2251-debris", "lat": 64.60046112201009, "lon": -69.1237597185296, "alt_km": 623.7318001578169, "timestamp": "2025-12-26T13:39:19.373410+00:00", "meta": {"OBJECT_NAME": "COSMOS 2251 DEB", "OBJECT_ID": "1993-036GZ", "EPOCH": "2025-12-26T02:29:51.329184", "MEAN_MOTION": 14.73292495, "ECCENTRICITY": 0.00376323, "INCLINATION": 74.0164, "RA_OF_ASC_NODE": 254.6514, "ARG_OF_PERICENTER": 30.6143, "MEAN_ANOMALY": 94.3633, "EPHEMERIS_TYPE": 0, "CLASSIFICATION_TYPE": "U", "NORAD_CAT_ID": 34014, "ELEMENT_SET_NO": 999, "REV_AT_EPOCH": 89500, "BSTAR": 0.00087326401, "MEAN_MOTION_DOT": 5.682e-05, "MEAN_MOTION_DDOT": 0}, "tle": {"line1": "1 34014U 93036GZ  25360.10406631  .00005682  00000+0  87326-3 0  9999", "line2": "2 34014  74.0164 254.6514 0037632  30.6143  94.3633 14.73292495895007"}}, "geometry": {"type": "Point", "coordinates": [-69.1237597185296, 64.60046112201009]}}, {"type": "Feature", "properties": {"norad_id": 34015, "name": "COSMOS 2251 DEB", "group": "cosmos-2251-debris", "lat": -73.38357816626085, "lon": 26.73958924774137, "alt_km": 686.7887120001178, "timestamp": "2025-12-26T13:39:19.373421+00:00", "meta": {"OBJECT_NAME": "COSMOS 2251 DEB", "OBJECT_ID": "1993-036HA", "EPOCH": "2025-12-25T20:33:52.056864", "MEAN_MOTION": 14.60406274, "ECCENTRICITY": 0.00209084, "INCLINATION": 74.0239, "RA_OF_ASC_NODE": 134.3632, "ARG_OF_PERICENTER": 231.1476, "MEAN_ANOMALY": 251.6833, "EPHEMERIS_TYPE": 0, "CLASSIFICATION_TYPE": "U", "NORAD_CAT_ID": 34015, "ELEMENT_SET_NO": 999, "REV_AT_EPOCH": 88722, "BSTAR": 0.0012062362, "MEAN_MOTION_DOT": 5.833e-05, "MEAN_MOTION_DDOT": 0}, "tle": {"line1": "1 34015U 93036HA  25359.85685251  .00005833  00000+0  12062-2 0  9999", "line2": "2 34015  74.0239 134.3632 0020908 231.1476 251.6833 14.60406274887224"}}, "geometry": {"type": "Point", "coordinates": [26.73958924774137, -73.38357816626085]}}, {"type": "Feature", "properties": {"norad_id": 34018, "name": "COSMOS 2251 DEB", "group": "cosmos-2251-debris", "lat": 59.51430406883596, "lon": 98.08699592526715, "alt_km": 799.9968995570134, "timestamp": "2025-12-26T13:39:19.373431+00:00", "meta": {"OBJECT_NAME": "COSMOS 2251 DEB", "OBJECT_ID": "1993-036HD", "EPOCH": "2025-12-25T22:14:22.255872", "MEAN_MOTION": 13.81085933, "ECCENTRICITY": 0.0263082, "INCLINATION": 73.878, "RA_OF_ASC_NODE": 69.7495, "ARG_OF_PERICENTER": 103.0979, "MEAN_ANOMALY": 10.1653, "EPHEMERIS_TYPE": 0, "CLASSIFICATION_TYPE": "U", "NORAD_CAT_ID": 34018, "ELEMENT_SET_NO": 999, "REV_AT_EPOCH": 84839, "BSTAR": 0.00033084, "MEAN_MOTION_DOT": 4.33e-06, "MEAN_MOTION_DDOT": 0}, "tle": {"line1": "1 34018U 93036HD  25359.92664648  .00000433  00000+0  33084-3 0  9996", "line2": "2 34018  73.8780  69.7495 0263082 103.0979  10.1653 13.81085933848390"}}, "geometry": {"type": "Point", "coordinates": [98.08699592526715, 59.51430406883596]}}, {"type": "Feature", "properties": {"norad_id": 34019, "name": "COSMOS 2251 DEB", "group": "cosmos-2251-debris", "lat": -54.624218865738214, "lon": 1.3939133038619878, "alt_km": 790.7001424933724, "timestamp": "2025-12-26T13:39:19.373442+00:00", "meta": {"OBJECT_NAME": "COSMOS 2251 DEB", "OBJECT_ID": "1993-036HE", "EPOCH": "2025-12-26T04:10:32.855232", "MEAN_MOTION": 14.33994544, "ECCENTRICITY": 0.00621061, "INCLINATION": 73.9541, "RA_OF_ASC_NODE": 26.0321, "ARG_OF_PERICENTER": 205.202, "MEAN_ANOMALY": 217.8736, "EPHEMERIS_TYPE": 0, "CLASSIFICATION_TYPE": "U", "NORAD_CAT_ID": 34019, "ELEMENT_SET_NO": 999, "REV_AT_EPOCH": 87713, "BSTAR": 0.00069422308, "MEAN_MOTION_DOT": 1.954e-05, "MEAN_MOTION_DDOT": 0}, "tle": {"line1": "1 34019U 93036HE  25360.17399138  .00001954  00000+0  69422-3 0  9999", "line2": "2 34019  73.9541  26.0321 0062106 205.2020 217.8736 14.33994544877134"}}, "geometry": {"type": "Point", "coordinates": [1.3939133038619878, -54.624218865738214]}}, {"type": "Feature", "properties": {"norad_id": 34021, "name": "COSMOS 2251 DEB", "group": "cosmos-2251-debris", "lat": 59.601838724399215, "lon": -105.34235325140673, "alt_km": 729.1567910120184, "timestamp": "2025-12-26T13:39:19.373453+00:00", "meta": {"OBJECT_NAME": "COSMOS 2251 DEB", "OBJECT_ID": "1993-036HG", "EPOCH": "2025-12-25T13:59:23.683200", "MEAN_MOTION": 14.49993324, "ECCENTRICITY": 0.0020971, "INCLINATION": 74.0361, "RA_OF_ASC_NODE": 105.7137, "ARG_OF_PERICENTER": 248.5952, "MEAN_ANOMALY": 122.6271, "EPHEMERIS_TYPE": 0, "CLASSIFICATION_TYPE": "U", "NORAD_CAT_ID": 34021, "ELEMENT_SET_NO": 999, "REV_AT_EPOCH": 88816, "BSTAR": 0.00049562, "MEAN_MOTION_DOT": 1.897e-05, "MEAN_MOTION_DDOT": 0}, "tle": {"line1": "1 34021U 93036HG  25359.58291300  .00001897  00000+0  49562-3 0  9996", "line2": "2 34021  74.0361 105.7137 0020971 248.5952 122.6271 14.49993324888161"}}, "geometry": {"type": "Point", "coordinates": [-105.34235325140673, 59.601838724399215]}}, {"type": "Feature", "properties": {"norad_id": 34022, "name": "COSMOS 2251 DEB", "group": "cosmos-2251-debris", "lat": 67.79529844270341, "lon": 20.84955283725854, "alt_km": 770.1481654797008, "timestamp": "2025-12-26T13:39:19.373463+00:00", "meta": {"OBJECT_NAME": "COSMOS 2251 DEB", "OBJECT_ID": "1993-036HH", "EPOCH": "2025-12-26T03:52:05.044800", "MEAN_MOTION": 14.38981592, "ECCENTRICITY": 0.00230906, "INCLINATION": 74.0534, "RA_OF_ASC_NODE": 246.0652, "ARG_OF_PERICENTER": 308.9146, "MEAN_ANOMALY": 204.8914, "EPHEMERIS_TYPE": 0, "CLASSIFICATION_TYPE": "U", "NORAD_CAT_ID": 34022, "ELEMENT_SET_NO": 999, "REV_AT_EPOCH": 88388, "BSTAR": 0.00019100519, "MEAN_MOTION_DOT": 5.65e-06, "MEAN_MOTION_DDOT": 0}, "tle": {"line1": "1 34022U 93036HH  25360.16116950  .00000565  00000+0  19101-3 0  9997", "line2": "2 34022  74.0534 246.0652 0023090 308.9146 204.8914 14.38981592883889"}}, "geometry": {"type": "Point", "coordinates": [20.84955283725854, 67.79529844270341]}}, {"type": "Feature", "properties": {"norad_id": 34023, "name": "COSMOS 2251 DEB", "group": "cosmos-2251-debris", "lat": 68.34768985268828, "lon": -0.04033096650242081, "alt_km": 760.6088398989314, "timestamp": "2025-12-26T13:39:19.373474+00:00", "meta": {"OBJECT_NAME": "COSMOS 2251 DEB", "OBJECT_ID": "1993-036HJ", "EPOCH": "2025-12-26T02:12:27.707040", "MEAN_MOTION": 14.40585764, "ECCENTRICITY": 0.00189342, "INCLINATION": 74.0237, "RA_OF_ASC_NODE": 227.033, "ARG_OF_PERICENTER": 320.8602, "MEAN_ANOMALY": 191.0787, "EPHEMERIS_TYPE": 0, "CLASSIFICATION_TYPE": "U", "NORAD_CAT_ID": 34023, "ELEMENT_SET_NO": 999, "REV_AT_EPOCH": 88406, "BSTAR": 0.00025125652, "MEAN_MOTION_DOT": 7.76e-06, "MEAN_MOTION_DDOT": 0}, "tle": {"line1": "1 34023U 93036HJ  25360.09198735  .00000776  00000+0  25126-3 0  9999", "line2": "2 34023  74.0237 227.0330 0018934 320.8602 191.0787 14.40585764884063"}}, "geometry": {"type": "Point", "coordinates": [-0.04033096650242081, 68.34768985268828]}}, {"type": "Feature", "properties": {"norad_id": 34024, "name": "COSMOS 2251 DEB", "group": "cosmos-2251-debris", "lat": -35.11909333391377, "lon": 122.25202850420845, "alt_km": 787.7323109181762, "timestamp": "2025-12-26T13:39:19.373484+00:00", "meta": {"OBJECT_NAME": "COSMOS 2251 DEB", "OBJECT_ID": "1993-036HK", "EPOCH": "2025-12-26T06:31:17.936832", "MEAN_MOTION": 14.35411232, "ECCENTRICITY": 0.00216172, "INCLINATION": 74.0471, "RA_OF_ASC_NODE": 291.1909, "ARG_OF_PERICENTER": 339.1187, "MEAN_ANOMALY": 142.3876, "EPHEMERIS_TYPE": 0, "CLASSIFICATION_TYPE": "U", "NORAD_CAT_ID": 34024, "ELEMENT_SET_NO": 999, "REV_AT_EPOCH": 88218, "BSTAR": 0.0002041213, "MEAN_MOTION_DOT": 5.61e-06, "MEAN_MOTION_DDOT": 0}, "tle": {"line1": "1 34024U 93036HK  25360.27173538  .00000561  00000+0  20412-3 0  9999", "line2": "2 34024  74.0471 291.1909 0021617 339.1187 142.3876 14.35411232882182"}}, "geometry": {"type": "Point", "coordinates": [122.25202850420845, -35.11909333391377]}}, {"type": "Feature", "properties": {"norad_id": 34026, "name": "COSMOS 2251 DEB", "group": "cosmos-2251-debris", "lat": -38.371382916549685, "lon": 147.62605294131492, "alt_km": 815.3833596824197, "timestamp": "2025-12-26T13:39:19.373494+00:00", "meta": {"OBJECT_NAME": "COSMOS 2251 DEB", "OBJECT_ID": "1993-036HM", "EPOCH": "2025-12-25T00:00:06.887808", "MEAN_MOTION": 13.65323017, "ECCENTRICITY": 0.0349583, "INCLINATION": 73.7668, "RA_OF_ASC_NODE": 316.8973, "ARG_OF_PERICENTER": 185.0257, "MEAN_ANOMALY": 244.2207, "EPHEMERIS_TYPE": 0, "CLASSIFICATION_TYPE": "U", "NORAD_CAT_ID": 34026, "ELEMENT_SET_NO": 999, "REV_AT_EPOCH": 83699, "BSTAR": 0.00042875556, "MEAN_MOTION_DOT": 5.06e-06, "MEAN_MOTION_DDOT": 0}, "tle": {"line1": "1 34026U 93036HM  25359.00007972  .00000506  00000+0  42876-3 0  9995", "line2": "2 34026  73.7668 316.8973 0349583 185.0257 244.2207 13.65323017836998"}}, "geometry": {"type": "Point", "coordinates": [147.62605294131492, -38.371382916549685]}}, {"type": "Feature", "properties": {"norad_id": 34028, "name": "COSMOS 2251 DEB", "group": "cosmos-2251-debris", "lat": 3.2166562230047338, "lon": 145.11740517905312, "alt_km": 1057.5858043394055, "timestamp": "2025-12-26T13:39:19.373505+00:00", "meta": {"OBJECT_NAME": "COSMOS 2251 DEB", "OBJECT_ID": "1993-036HP", "EPOCH": "2025-12-26T06:06:07.572384", "MEAN_MOTION": 13.20634714, "ECCENTRICITY": 0.0543469, "INCLINATION": 73.884, "RA_OF_ASC_NODE": 326.5307, "ARG_OF_PERICENTER": 102.0525, "MEAN_ANOMALY": 12.8057, "EPHEMERIS_TYPE": 0, "CLASSIFICATION_TYPE": "U", "NORAD_CAT_ID": 34028, "ELEMENT_SET_NO": 999, "REV_AT_EPOCH": 81186, "BSTAR": 0.00058686882, "MEAN_MOTION_DOT": 5.02e-06, "MEAN_MOTION_DDOT": 0}, "tle": {"line1": "1 34028U 93036HP  25360.25425431  .00000502  00000+0  58687-3 0  9993", "line2": "2 34028  73.8840 326.5307 0543469 102.0525  12.8057 13.20634714811869"}}, "geometry": {"type": "Point", "coordinates": [145.11740517905312, 3.2166562230047338]}}]}